start=new Date('2022-01-11T00:00:00.000Z').valueOf();
sats=[{"FILE":"3269118","MEAN_MOTION_DDOT":"0.0000000000000","OBJECT_TYPE":"PAYLOAD","REF_FRAME":"TEME","OBJECT_NAME":"STARLINK-1420","TLE_LINE1":"1 45695U 20035AQ  22010.73949422  .00000590  00000-0  58509-4 0  9999","BSTAR":"0.00005850900000","RCS_SIZE":"LARGE","TLE_LINE2":"2 45695  53.0551  15.4455 0001677  73.4364 286.6809 15.06406403 90212","PERIOD":"95.592","MEAN_ANOMALY":"286.6809","SITE":"AFETR","GP_ID":"193623923","OBJECT_ID":"2020-035AQ","MEAN_MOTION_DOT":"0.00000590","INCLINATION":"53.0551","PERIAPSIS":"546.033","NORAD_CAT_ID":"45695","MEAN_ELEMENT_THEORY":"SGP4","TIME_SYSTEM":"UTC","DECAY_DATE":null,"REV_AT_EPOCH":"9021","SEMIMAJOR_AXIS":"6925.329","ECCENTRICITY":"0.00016770","EPHEMERIS_TYPE":"0","EPOCH":"2022-01-10T17:44:52.300608","COUNTRY_CODE":"US","APOAPSIS":"548.355","ELEMENT_SET_NO":"999","LAUNCH_DATE":"2020-06-04","CLASSIFICATION_TYPE":"U","MEAN_MOTION":"15.06406403","CENTER_NAME":"EARTH","RA_OF_ASC_NODE":"15.4455","ARG_OF_PERICENTER":"73.4364"},{"RA_OF_ASC_NODE":"36.5985","CENTER_NAME":"EARTH","MEAN_MOTION":"15.06403630","ARG_OF_PERICENTER":"61.3838","CLASSIFICATION_TYPE":"U","EPOCH":"2022-01-10T11:35:58.903296","LAUNCH_DATE":"2020-06-04","ELEMENT_SET_NO":"999","COUNTRY_CODE":"US","APOAPSIS":"548.178","NORAD_CAT_ID":"45696","MEAN_ELEMENT_THEORY":"SGP4","EPHEMERIS_TYPE":"0","SEMIMAJOR_AXIS":"6925.337","DECAY_DATE":null,"REV_AT_EPOCH":"8988","ECCENTRICITY":"0.00014090","TIME_SYSTEM":"UTC","OBJECT_ID":"2020-035AR","PERIAPSIS":"546.227","INCLINATION":"53.0550","MEAN_MOTION_DOT":"0.00002537","MEAN_ANOMALY":"298.7293","TLE_LINE2":"2 45696  53.0550  36.5985 0001409  61.3838 298.7293 15.06403630 89880","PERIOD":"95.592","GP_ID":"193593266","SITE":"AFETR","BSTAR":"0.00018914000000","TLE_LINE1":"1 45696U 20035AR  22010.48332064  .00002537  00000-0  18914-3 0  9998","OBJECT_NAME":"STARLINK-1422","RCS_SIZE":"LARGE","MEAN_MOTION_DDOT":"0.0000000000000","FILE":"3268856","REF_FRAME":"TEME","OBJECT_TYPE":"PAYLOAD"},{"OBJECT_ID":"2020-035AS","PERIAPSIS":"546.077","MEAN_MOTION_DOT":"0.00003471","INCLINATION":"53.0554","TLE_LINE2":"2 45697  53.0554  15.5188 0001626  76.5628 283.5543 15.06403445 90216","PERIOD":"95.592","MEAN_ANOMALY":"283.5543","SITE":"AFETR","GP_ID":"193622423","BSTAR":"0.00025175000000","TLE_LINE1":"1 45697U 20035AS  22010.72475782  .00003471  00000-0  25175-3 0  9996","OBJECT_NAME":"STARLINK-1351","RCS_SIZE":"LARGE","MEAN_MOTION_DDOT":"0.0000000000000","FILE":"3269118","REF_FRAME":"TEME","OBJECT_TYPE":"PAYLOAD","RA_OF_ASC_NODE":"15.5188","MEAN_MOTION":"15.06403445","CENTER_NAME":"EARTH","ARG_OF_PERICENTER":"76.5628","CLASSIFICATION_TYPE":"U","EPOCH":"2022-01-10T17:23:39.075648","LAUNCH_DATE":"2020-06-04","APOAPSIS":"548.329","COUNTRY_CODE":"US","ELEMENT_SET_NO":"999","MEAN_ELEMENT_THEORY":"SGP4","NORAD_CAT_ID":"45697","ECCENTRICITY":"0.00016260","DECAY_DATE":null,"SEMIMAJOR_AXIS":"6925.338","REV_AT_EPOCH":"9021","EPHEMERIS_TYPE":"0","TIME_SYSTEM":"UTC"},{"TLE_LINE1":"1 45698U 20035AT  22010.71369160  .00001708  00000-0  13348-3 0  9998","BSTAR":"0.00013348000000","OBJECT_NAME":"STARLINK-1370","RCS_SIZE":"LARGE","MEAN_MOTION_DDOT":"0.0000000000000","FILE":"3269118","REF_FRAME":"TEME","OBJECT_TYPE":"PAYLOAD","OBJECT_ID":"2020-035AT","PERIAPSIS":"546.059","INCLINATION":"53.0555","MEAN_MOTION_DOT":"0.00001708","MEAN_ANOMALY":"291.0627","PERIOD":"95.592","TLE_LINE2":"2 45698  53.0555  15.5765 0001638  69.0537 291.0627 15.06406543 90217","SITE":"AFETR","GP_ID":"193623172","EPOCH":"2022-01-10T17:07:42.954240","LAUNCH_DATE":"2020-06-04","ELEMENT_SET_NO":"999","APOAPSIS":"548.328","COUNTRY_CODE":"US","MEAN_ELEMENT_THEORY":"SGP4","NORAD_CAT_ID":"45698","EPHEMERIS_TYPE":"0","DECAY_DATE":null,"SEMIMAJOR_AXIS":"6925.329","REV_AT_EPOCH":"9021","ECCENTRICITY":"0.00016380","TIME_SYSTEM":"UTC","RA_OF_ASC_NODE":"15.5765","CENTER_NAME":"EARTH","MEAN_MOTION":"15.06406543","ARG_OF_PERICENTER":"69.0537","CLASSIFICATION_TYPE":"U"},{"CLASSIFICATION_TYPE":"U","ARG_OF_PERICENTER":"63.2017","MEAN_MOTION":"15.06401532","CENTER_NAME":"EARTH","RA_OF_ASC_NODE":"17.4005","TIME_SYSTEM":"UTC","DECAY_DATE":null,"REV_AT_EPOCH":"9014","SEMIMAJOR_AXIS":"6925.344","ECCENTRICITY":"0.00014830","EPHEMERIS_TYPE":"0","MEAN_ELEMENT_THEORY":"SGP4","NORAD_CAT_ID":"45699","COUNTRY_CODE":"US","APOAPSIS":"548.236","ELEMENT_SET_NO":"999","LAUNCH_DATE":"2020-06-04","EPOCH":"2022-01-10T07:18:33.981408","SITE":"AFETR","GP_ID":"193593521","PERIOD":"95.592","TLE_LINE2":"2 45699  53.0567  17.4005 0001483  63.2017 296.9124 15.06401532 90147","MEAN_ANOMALY":"296.9124","MEAN_MOTION_DOT":"0.00000408","INCLINATION":"53.0567","PERIAPSIS":"546.182","OBJECT_ID":"2020-035AU","OBJECT_TYPE":"PAYLOAD","REF_FRAME":"TEME","FILE":"3268856","MEAN_MOTION_DDOT":"0.0000000000000","RCS_SIZE":"LARGE","OBJECT_NAME":"STARLINK-1398","TLE_LINE1":"1 45699U 20035AU  22010.30455997  .00000408  00000-0  46274-4 0  9999","BSTAR":"0.00004627400000"},{"OBJECT_ID":"2020-035AV","PERIAPSIS":"546.165","INCLINATION":"53.0562","MEAN_MOTION_DOT":"0.00000895","PERIOD":"95.591","TLE_LINE2":"2 45700  53.0562  15.6457 0001462  82.1955 277.9200 15.06411763 90202","MEAN_ANOMALY":"277.9200","SITE":"AFETR","GP_ID":"193623674","TLE_LINE1":"1 45700U 20035AV  22010.69894279  .00000895  00000-0  78965-4 0  9996","BSTAR":"0.00007896500000","OBJECT_NAME":"STARLINK-1400","RCS_SIZE":"LARGE","MEAN_MOTION_DDOT":"0.0000000000000","FILE":"3269118","REF_FRAME":"TEME","OBJECT_TYPE":"PAYLOAD","RA_OF_ASC_NODE":"15.6457","MEAN_MOTION":"15.06411763","CENTER_NAME":"EARTH","ARG_OF_PERICENTER":"82.1955","CLASSIFICATION_TYPE":"U","EPOCH":"2022-01-10T16:46:28.657056","LAUNCH_DATE":"2020-06-04","APOAPSIS":"548.190","COUNTRY_CODE":"US","ELEMENT_SET_NO":"999","NORAD_CAT_ID":"45700","MEAN_ELEMENT_THEORY":"SGP4","ECCENTRICITY":"0.00014620","DECAY_DATE":null,"SEMIMAJOR_AXIS":"6925.313","REV_AT_EPOCH":"9020","EPHEMERIS_TYPE":"0","TIME_SYSTEM":"UTC"},{"MEAN_MOTION_DDOT":"0.0000000000000","FILE":"3269118","REF_FRAME":"TEME","OBJECT_TYPE":"PAYLOAD","TLE_LINE1":"1 45701U 20035AW  22010.72843962  .00000712  00000-0  66717-4 0  9994","BSTAR":"0.00006671700000","OBJECT_NAME":"STARLINK-1403","RCS_SIZE":"LARGE","PERIOD":"95.592","TLE_LINE2":"2 45701  53.0546  15.4901 0001688  70.6265 289.4906 15.06404282 90202","MEAN_ANOMALY":"289.4906","SITE":"AFETR","GP_ID":"193622923","OBJECT_ID":"2020-035AW","PERIAPSIS":"546.031","MEAN_MOTION_DOT":"0.00000712","INCLINATION":"53.0546","MEAN_ELEMENT_THEORY":"SGP4","NORAD_CAT_ID":"45701","SEMIMAJOR_AXIS":"6925.335","DECAY_DATE":null,"REV_AT_EPOCH":"9020","ECCENTRICITY":"0.00016880","EPHEMERIS_TYPE":"0","TIME_SYSTEM":"UTC","EPOCH":"2022-01-10T17:28:57.183168","LAUNCH_DATE":"2020-06-04","APOAPSIS":"548.369","COUNTRY_CODE":"US","ELEMENT_SET_NO":"999","CLASSIFICATION_TYPE":"U","RA_OF_ASC_NODE":"15.4901","MEAN_MOTION":"15.06404282","CENTER_NAME":"EARTH","ARG_OF_PERICENTER":"70.6265"},{"OBJECT_ID":"2020-035AX","PERIAPSIS":"546.051","INCLINATION":"53.0554","MEAN_MOTION_DOT":"0.00000047","MEAN_ANOMALY":"294.6583","PERIOD":"95.592","TLE_LINE2":"2 45702  53.0554  15.2834 0001690  65.4582 294.6583 15.06397386 90218","SITE":"AFETR","GP_ID":"193622673","BSTAR":"0.00002208700000","TLE_LINE1":"1 45702U 20035AX  22010.77636196  .00000047  00000-0  22087-4 0  9992","OBJECT_NAME":"STARLINK-1405","RCS_SIZE":"LARGE","MEAN_MOTION_DDOT":"0.0000000000000","FILE":"3269118","REF_FRAME":"TEME","OBJECT_TYPE":"PAYLOAD","RA_OF_ASC_NODE":"15.2834","CENTER_NAME":"EARTH","MEAN_MOTION":"15.06397386","ARG_OF_PERICENTER":"65.4582","CLASSIFICATION_TYPE":"U","EPOCH":"2022-01-10T18:37:57.673344","LAUNCH_DATE":"2020-06-04","ELEMENT_SET_NO":"999","COUNTRY_CODE":"US","APOAPSIS":"548.392","MEAN_ELEMENT_THEORY":"SGP4","NORAD_CAT_ID":"45702","EPHEMERIS_TYPE":"0","DECAY_DATE":null,"ECCENTRICITY":"0.00016900","SEMIMAJOR_AXIS":"6925.357","REV_AT_EPOCH":"9021","TIME_SYSTEM":"UTC"},{"LAUNCH_DATE":"2020-06-04","ELEMENT_SET_NO":"999","APOAPSIS":"548.313","COUNTRY_CODE":"US","EPOCH":"2022-01-10T16:57:06.514560","EPHEMERIS_TYPE":"0","DECAY_DATE":null,"SEMIMAJOR_AXIS":"6925.338","REV_AT_EPOCH":"9020","ECCENTRICITY":"0.00016040","TIME_SYSTEM":"UTC","MEAN_ELEMENT_THEORY":"SGP4","NORAD_CAT_ID":"45703","ARG_OF_PERICENTER":"73.9610","RA_OF_ASC_NODE":"15.6076","CENTER_NAME":"EARTH","MEAN_MOTION":"15.06403592","CLASSIFICATION_TYPE":"U","RCS_SIZE":"LARGE","TLE_LINE1":"1 45703U 20035AY  22010.70632540  .00000338  00000-0  41573-4 0  9999","BSTAR":"0.00004157300000","OBJECT_NAME":"STARLINK-1407","REF_FRAME":"TEME","OBJECT_TYPE":"PAYLOAD","MEAN_MOTION_DDOT":"0.0000000000000","FILE":"3269118","PERIAPSIS":"546.092","INCLINATION":"53.0557","MEAN_MOTION_DOT":"0.00000338","OBJECT_ID":"2020-035AY","GP_ID":"193623924","SITE":"AFETR","MEAN_ANOMALY":"286.1555","PERIOD":"95.592","TLE_LINE2":"2 45703  53.0557  15.6076 0001604  73.9610 286.1555 15.06403592 90206"},{"CLASSIFICATION_TYPE":"U","CENTER_NAME":"EARTH","MEAN_MOTION":"15.06401343","RA_OF_ASC_NODE":"45.1658","ARG_OF_PERICENTER":"67.5040","NORAD_CAT_ID":"45704","MEAN_ELEMENT_THEORY":"SGP4","TIME_SYSTEM":"UTC","EPHEMERIS_TYPE":"0","DECAY_DATE":null,"ECCENTRICITY":"0.00013210","SEMIMAJOR_AXIS":"6925.344","REV_AT_EPOCH":"8980","EPOCH":"2022-01-10T19:09:45.930528","ELEMENT_SET_NO":"999","COUNTRY_CODE":"US","APOAPSIS":"548.124","LAUNCH_DATE":"2020-06-04","MEAN_ANOMALY":"292.6089","TLE_LINE2":"2 45704  53.0590  45.1658 0001321  67.5040 292.6089 15.06401343 89800","PERIOD":"95.592","SITE":"AFETR","GP_ID":"193624174","OBJECT_ID":"2020-035AZ","MEAN_MOTION_DOT":"-0.00000502","INCLINATION":"53.0590","PERIAPSIS":"546.295","FILE":"3269118","MEAN_MOTION_DDOT":"0.0000000000000","OBJECT_TYPE":"PAYLOAD","REF_FRAME":"TEME","OBJECT_NAME":"STARLINK-1409","TLE_LINE1":"1 45704U 20035AZ  22010.79844827 -.00000502  00000-0 -14808-4 0  9998","BSTAR":"-0.00001480800000","RCS_SIZE":"LARGE"}];
